IRIDIUM 119             
1 42959U 17061E   25294.79743843 -.00000036  00000+0 -19793-4 0  9994
2 42959  86.3944 124.9329 0002240  85.7143 274.4309 14.34217576420646
IRIDIUM 107             
1 42960U 17061F   25294.81646462  .00000166  00000+0  52261-4 0  9997
2 42960  86.3941 124.9450 0002264  76.2757 283.8690 14.34218945420651
IRIDIUM 132             
1 42961U 17061G   25294.75303769  .00000165  00000+0  51881-4 0  9997
2 42961  86.3940 124.9525 0002087  84.3492 275.7941 14.34219216420643
IRIDIUM 136             
1 42962U 17061H   25294.78475265  .00000047  00000+0  97252-5 0  9994
2 42962  86.3940 124.9448 0002223  84.9713 275.1736 14.34218032420665
IRIDIUM 139             
1 42963U 17061J   25294.79109516 -.00000062  00000+0 -29188-4 0  9990
2 42963  86.3946 125.0001 0001953  80.4449 279.6968 14.34217465420671
IRIDIUM 125             
1 42964U 17061K   25294.56910536  .00000070  00000+0  18027-4 0  9995
2 42964  86.3944 125.1497 0002538  78.9917 281.1564 14.34218453420658
IRIDIUM 135             
1 43070U 17083A   25294.82230134  .00000510  00000+0  17522-3 0  9993
2 43070  86.3958  61.6423 0001983  94.5750 265.5672 14.34214718409986
IRIDIUM 138             
1 43071U 17083B   25294.84767523 -.00000207  00000+0 -81136-4 0  9991
2 43071  86.3967  61.2911 0002354  93.6716 266.4749 14.34216013409974
